[
  {
    "CCSDS_OMM_VERS": "3.0",
    "COMMENT": "GENERATED VIA SPACE-TRACK.ORG API",
    "CREATION_DATE": "2014-08-22T15:40:05",
    "ORIGINATOR": "18 SPCS",
    "OBJECT_NAME": "IRIDIUM 33 DEB",
    "OBJECT_ID": "1997-051MG",
    "CENTER_NAME": "EARTH",
    "REF_FRAME": "TEME",
    "TIME_SYSTEM": "UTC",
    "MEAN_ELEMENT_THEORY": "SGP4",
    "EPOCH": "2014-08-22T07:46:04.285344",
    "MEAN_MOTION": "15.91816102",
    "ECCENTRICITY": "0.00276090",
    "INCLINATION": "86.3574",
    "RA_OF_ASC_NODE": "331.7739",
    "ARG_OF_PERICENTER": "294.2678",
    "MEAN_ANOMALY": "129.3850",
    "EPHEMERIS_TYPE": "0",
    "CLASSIFICATION_TYPE": "U",
    "NORAD_CAT_ID": "34832",
    "ELEMENT_SET_NO": "999",
    "REV_AT_EPOCH": "28639",
    "BSTAR": "0.02532600000000",
    "MEAN_MOTION_DOT": "0.05953127",
    "MEAN_MOTION_DDOT": "0.0740840000000",
    "SEMIMAJOR_AXIS": "6675.342",
    "PERIOD": "90.462",
    "APOAPSIS": "315.636",
    "PERIAPSIS": "278.777",
    "OBJECT_TYPE": "DEBRIS",
    "RCS_SIZE": "SMALL",
    "COUNTRY_CODE": "US",
    "LAUNCH_DATE": "1997-09-14",
    "SITE": "TTMTR",
    "DECAY_DATE": "2014-08-22",
    "FILE": "1734110",
    "GP_ID": "96787501",
    "TLE_LINE0": "0 IRIDIUM 33 DEB",
    "TLE_LINE1": "1 34832U 97051MG  14234.32366071  .05953127  74084-1  25326-1 0  9999",
    "TLE_LINE2": "2 34832 086.3574 331.7739 0027609 294.2678 129.3850 15.91816102286390"
  },
  {
    "CCSDS_OMM_VERS": "3.0",
    "COMMENT": "GENERATED VIA SPACE-TRACK.ORG API",
    "CREATION_DATE": "2025-11-26T23:16:29",
    "ORIGINATOR": "18 SPCS",
    "OBJECT_NAME": "IRIDIUM 33 DEB",
    "OBJECT_ID": "1997-051MH",
    "CENTER_NAME": "EARTH",
    "REF_FRAME": "TEME",
    "TIME_SYSTEM": "UTC",
    "MEAN_ELEMENT_THEORY": "SGP4",
    "EPOCH": "2025-11-26T17:04:28.797024",
    "MEAN_MOTION": "14.52222175",
    "ECCENTRICITY": "0.00212190",
    "INCLINATION": "86.3937",
    "RA_OF_ASC_NODE": "57.8991",
    "ARG_OF_PERICENTER": "147.8866",
    "MEAN_ANOMALY": "339.5986",
    "EPHEMERIS_TYPE": "0",
    "CLASSIFICATION_TYPE": "U",
    "NORAD_CAT_ID": "34833",
    "ELEMENT_SET_NO": "999",
    "REV_AT_EPOCH": "87482",
    "BSTAR": "0.00108250000000",
    "MEAN_MOTION_DOT": "0.00004425",
    "MEAN_MOTION_DDOT": "0.0000000000000",
    "SEMIMAJOR_AXIS": "7096.537",
    "PERIOD": "99.158",
    "APOAPSIS": "733.460",
    "PERIAPSIS": "703.344",
    "OBJECT_TYPE": "DEBRIS",
    "RCS_SIZE": "SMALL",
    "COUNTRY_CODE": "US",
    "LAUNCH_DATE": "1997-09-14",
    "SITE": "TTMTR",
    "DECAY_DATE": null,
    "FILE": "4903487",
    "GP_ID": "303674585",
    "TLE_LINE0": "0 IRIDIUM 33 DEB",
    "TLE_LINE1": "1 34833U 97051MH  25330.71144441  .00004425  00000-0  10825-2 0  9995",
    "TLE_LINE2": "2 34833  86.3937  57.8991 0021219 147.8866 339.5986 14.52222175874826"
  },
  {
    "CCSDS_OMM_VERS": "3.0",
    "COMMENT": "GENERATED VIA SPACE-TRACK.ORG API",
    "CREATION_DATE": "2011-11-28T16:30:29",
    "ORIGINATOR": "18 SPCS",
    "OBJECT_NAME": "IRIDIUM 33 DEB",
    "OBJECT_ID": "1997-051MJ",
    "CENTER_NAME": "EARTH",
    "REF_FRAME": "TEME",
    "TIME_SYSTEM": "UTC",
    "MEAN_ELEMENT_THEORY": "SGP4",
    "EPOCH": "2011-11-28T04:27:26.405856",
    "MEAN_MOTION": "15.24002081",
    "ECCENTRICITY": "0.00164630",
    "INCLINATION": "86.2705",
    "RA_OF_ASC_NODE": "28.7387",
    "ARG_OF_PERICENTER": "9.8803",
    "MEAN_ANOMALY": "344.4965",
    "EPHEMERIS_TYPE": "0",
    "CLASSIFICATION_TYPE": "U",
    "NORAD_CAT_ID": "34834",
    "ELEMENT_SET_NO": "999",
    "REV_AT_EPOCH": "14610",
    "BSTAR": "0.04075200000000",
    "MEAN_MOTION_DOT": "0.01080126",
    "MEAN_MOTION_DDOT": "0.0000000000000",
    "SEMIMAJOR_AXIS": "6871.925",
    "PERIOD": "94.488",
    "APOAPSIS": "505.103",
    "PERIAPSIS": "482.476",
    "OBJECT_TYPE": "DEBRIS",
    "RCS_SIZE": "SMALL",
    "COUNTRY_CODE": "US",
    "LAUNCH_DATE": "1997-09-14",
    "SITE": "TTMTR",
    "DECAY_DATE": "2011-12-14",
    "FILE": "1196755",
    "GP_ID": "86105322",
    "TLE_LINE0": "0 IRIDIUM 33 DEB",
    "TLE_LINE1": "1 34834U 97051MJ  11332.18572229  .01080126  00000-0  40752-1 0  9997",
    "TLE_LINE2": "2 34834 086.2705 028.7387 0016463 009.8803 344.4965 15.24002081146105"
  },
  {
    "CCSDS_OMM_VERS": "3.0",
    "COMMENT": "GENERATED VIA SPACE-TRACK.ORG API",
    "CREATION_DATE": "2013-10-21T15:12:21",
    "ORIGINATOR": "18 SPCS",
    "OBJECT_NAME": "IRIDIUM 33 DEB",
    "OBJECT_ID": "1997-051MK",
    "CENTER_NAME": "EARTH",
    "REF_FRAME": "TEME",
    "TIME_SYSTEM": "UTC",
    "MEAN_ELEMENT_THEORY": "SGP4",
    "EPOCH": "2013-10-19T12:38:30.561503",
    "MEAN_MOTION": "15.63897627",
    "ECCENTRICITY": "0.00130280",
    "INCLINATION": "86.3765",
    "RA_OF_ASC_NODE": "118.4631",
    "ARG_OF_PERICENTER": "335.0197",
    "MEAN_ANOMALY": "14.2896",
    "EPHEMERIS_TYPE": "0",
    "CLASSIFICATION_TYPE": "U",
    "NORAD_CAT_ID": "34835",
    "ELEMENT_SET_NO": "999",
    "REV_AT_EPOCH": "24279",
    "BSTAR": "0.04924300000000",
    "MEAN_MOTION_DOT": "0.05544465",
    "MEAN_MOTION_DDOT": "0.0000000000000",
    "SEMIMAJOR_AXIS": "6754.552",
    "PERIOD": "92.077",
    "APOAPSIS": "385.217",
    "PERIAPSIS": "367.617",
    "OBJECT_TYPE": "DEBRIS",
    "RCS_SIZE": "SMALL",
    "COUNTRY_CODE": "US",
    "LAUNCH_DATE": "1997-09-14",
    "SITE": "TTMTR",
    "DECAY_DATE": "2013-10-21",
    "FILE": "1567294",
    "GP_ID": "94135688",
    "TLE_LINE0": "0 IRIDIUM 33 DEB",
    "TLE_LINE1": "1 34835U 97051MK  13292.52674261  .05544465  00000-0  49243-1 0  9991",
    "TLE_LINE2": "2 34835 086.3765 118.4631 0013028 335.0197 014.2896 15.63897627242794"
  },
  {
    "CCSDS_OMM_VERS": "3.0",
    "COMMENT": "GENERATED VIA SPACE-TRACK.ORG API",
    "CREATION_DATE": "2015-01-23T23:40:34",
    "ORIGINATOR": "18 SPCS",
    "OBJECT_NAME": "IRIDIUM 33 DEB",
    "OBJECT_ID": "1997-051ML",
    "CENTER_NAME": "EARTH",
    "REF_FRAME": "TEME",
    "TIME_SYSTEM": "UTC",
    "MEAN_ELEMENT_THEORY": "SGP4",
    "EPOCH": "2014-12-14T02:00:08.652671",
    "MEAN_MOTION": "15.27304174",
    "ECCENTRICITY": "0.00213530",
    "INCLINATION": "86.3190",
    "RA_OF_ASC_NODE": "267.3917",
    "ARG_OF_PERICENTER": "26.6638",
    "MEAN_ANOMALY": "349.3505",
    "EPHEMERIS_TYPE": "0",
    "CLASSIFICATION_TYPE": "U",
    "NORAD_CAT_ID": "34866",
    "ELEMENT_SET_NO": "999",
    "REV_AT_EPOCH": "30362",
    "BSTAR": "0.01763100000000",
    "MEAN_MOTION_DOT": "0.00505987",
    "MEAN_MOTION_DDOT": "0.0000000000000",
    "SEMIMAJOR_AXIS": "6862.012",
    "PERIOD": "94.283",
    "APOAPSIS": "498.529",
    "PERIAPSIS": "469.224",
    "OBJECT_TYPE": "DEBRIS",
    "RCS_SIZE": "SMALL",
    "COUNTRY_CODE": "US",
    "LAUNCH_DATE": "1997-09-14",
    "SITE": "TTMTR",
    "DECAY_DATE": "2015-01-16",
    "FILE": "1815436",
    "GP_ID": "98163197",
    "TLE_LINE0": "0 IRIDIUM 33 DEB",
    "TLE_LINE1": "1 34866U 97051ML  14348.08343348  .00505987  00000-0  17631-1 0  9995",
    "TLE_LINE2": "2 34866 086.3190 267.3917 0021353 026.6638 349.3505 15.27304174303623"
  },
  {
    "CCSDS_OMM_VERS": "3.0",
    "COMMENT": "GENERATED VIA SPACE-TRACK.ORG API",
    "CREATION_DATE": "2013-12-22T16:55:55",
    "ORIGINATOR": "18 SPCS",
    "OBJECT_NAME": "IRIDIUM 33 DEB",
    "OBJECT_ID": "1997-051MM",
    "CENTER_NAME": "EARTH",
    "REF_FRAME": "TEME",
    "TIME_SYSTEM": "UTC",
    "MEAN_ELEMENT_THEORY": "SGP4",
    "EPOCH": "2013-12-15T21:31:42.030335",
    "MEAN_MOTION": "15.87009691",
    "ECCENTRICITY": "0.00376170",
    "INCLINATION": "86.1660",
    "RA_OF_ASC_NODE": "45.8678",
    "ARG_OF_PERICENTER": "187.3315",
    "MEAN_ANOMALY": "173.4448",
    "EPHEMERIS_TYPE": "0",
    "CLASSIFICATION_TYPE": "U",
    "NORAD_CAT_ID": "34867",
    "ELEMENT_SET_NO": "999",
    "REV_AT_EPOCH": "25244",
    "BSTAR": "0.00919790000000",
    "MEAN_MOTION_DOT": "0.02391644",
    "MEAN_MOTION_DDOT": "0.0033685000000",
    "SEMIMAJOR_AXIS": "6688.813",
    "PERIOD": "90.736",
    "APOAPSIS": "335.839",
    "PERIAPSIS": "285.516",
    "OBJECT_TYPE": "DEBRIS",
    "RCS_SIZE": "SMALL",
    "COUNTRY_CODE": "US",
    "LAUNCH_DATE": "1997-09-14",
    "SITE": "TTMTR",
    "DECAY_DATE": "2013-12-18",
    "FILE": "1602462",
    "GP_ID": "94686150",
    "TLE_LINE0": "0 IRIDIUM 33 DEB",
    "TLE_LINE1": "1 34867U 97051MM  13349.89701424  .02391644  33685-2  91979-2 0  9998",
    "TLE_LINE2": "2 34867 086.1660 045.8678 0037617 187.3315 173.4448 15.87009691252441"
  },
  {
    "CCSDS_OMM_VERS": "3.0",
    "COMMENT": "GENERATED VIA SPACE-TRACK.ORG API",
    "CREATION_DATE": "2023-10-27T02:49:10",
    "ORIGINATOR": "18 SPCS",
    "OBJECT_NAME": "IRIDIUM 33 DEB",
    "OBJECT_ID": "1997-051MN",
    "CENTER_NAME": "EARTH",
    "REF_FRAME": "TEME",
    "TIME_SYSTEM": "UTC",
    "MEAN_ELEMENT_THEORY": "SGP4",
    "EPOCH": "2023-10-24T22:08:39.844032",
    "MEAN_MOTION": "15.74978153",
    "ECCENTRICITY": "0.00366060",
    "INCLINATION": "86.4751",
    "RA_OF_ASC_NODE": "94.8475",
    "ARG_OF_PERICENTER": "323.0568",
    "MEAN_ANOMALY": "36.8184",
    "EPHEMERIS_TYPE": "0",
    "CLASSIFICATION_TYPE": "U",
    "NORAD_CAT_ID": "34868",
    "ELEMENT_SET_NO": "999",
    "REV_AT_EPOCH": "27",
    "BSTAR": "0.02453600000000",
    "MEAN_MOTION_DOT": "0.04533100",
    "MEAN_MOTION_DDOT": "0.0000000000000",
    "SEMIMAJOR_AXIS": "6722.830",
    "PERIOD": "91.430",
    "APOAPSIS": "369.305",
    "PERIAPSIS": "320.086",
    "OBJECT_TYPE": "DEBRIS",
    "RCS_SIZE": "SMALL",
    "COUNTRY_CODE": "US",
    "LAUNCH_DATE": "1997-09-14",
    "SITE": "TTMTR",
    "DECAY_DATE": "2023-10-27",
    "FILE": "4054421",
    "GP_ID": "240274488",
    "TLE_LINE0": "0 IRIDIUM 33 DEB",
    "TLE_LINE1": "1 34868U 97051MN  23297.92268338  .04533100  00000-0  24536-1 0  9992",
    "TLE_LINE2": "2 34868  86.4751  94.8475 0036606 323.0568  36.8184 15.74978153   276"
  }
]